[{"OBJECT_ID":"2007-044A","OBJECT_NAME":"OPTUS D2","NORAD_CAT_ID":"32252","OBJECT_TYPE":"PAYLOAD","PERIOD":"1436.184","INCLINATION":"0.0188","APOGEE":"35803.486","PERIGEE":"35773.143","ECCENTRICITY":"0.0003598","MEAN_MOTION":"1.00265656","TLE_LINE1":"1 32252U 07044A   16237.83626765  .00000000  00000-0  10000-3 0  9995","TLE_LINE2":"2 32252   0.0188   6.9762 0003598 151.0649 268.5001  1.00265656 32518","LAUNCH_DATE":"2007-10-05","LAUNCH_SITE":"FRENCH GUIANA","OWNER":"AUSTRALIA","ORBIT_TYPE":"Geosynchronous","OPERATIONAL_STATUS":"Operational","satInfo":{"lng":-147.87449003156186,"lat":0.004975319045892521,"elevation":-8.561099911092779,"azimuth":102.87449003156188,"range":42679.632791792355,"height":35825.94573412107,"velocity":3.0727385626443637},"x":-139,"y":217,"dx":-2.6022569389966472,"dy":-1.6340076798490117,"maxAlt":256,"minAlt":256},{"OBJECT_ID":"2007-056A","OBJECT_NAME":"STAR ONE C1","NORAD_CAT_ID":"32293","OBJECT_TYPE":"PAYLOAD","PERIOD":"1436.102","INCLINATION":"0.0208","APOGEE":"35798.443","PERIGEE":"35774.965","ECCENTRICITY":"0.0002784","MEAN_MOTION":"1.00271402","TLE_LINE1":"1 32293U 07056A   16238.25293134 -.00000302 +00000-0 +00000-0 0  9992","TLE_LINE2":"2 32293 000.0208 234.1530 0002784 298.4686 187.3771 01.00271402015853","LAUNCH_DATE":"2007-11-14","LAUNCH_SITE":"FRENCH GUIANA","OWNER":"BRAZIL","ORBIT_TYPE":"Geosynchronous","OPERATIONAL_STATUS":"Operational","satInfo":{"lng":-78.63235522879523,"lat":-0.5805708981196999,"elevation":-9.136070137237594,"azimuth":33.63235522879523,"range":42726.87180550175,"height":35808.86715063795,"velocity":3.073566324627963},"x":-254,"y":-52,"dx":0.6058114318356556,"dy":-3.0132710566665386,"maxAlt":256,"minAlt":256},{"OBJECT_ID":"2008-007A","OBJECT_NAME":"WINDS (KIZUNA)","NORAD_CAT_ID":"32500","OBJECT_TYPE":"PAYLOAD","PERIOD":"1436.102","INCLINATION":"0.211","APOGEE":"35796.752","PERIGEE":"35776.664","ECCENTRICITY":"0.0002382","MEAN_MOTION":"1.00271387","TLE_LINE1":"1 32500U 08007A   16238.92132579 -.00000286 +00000-0 +00000-0 0  9990","TLE_LINE2":"2 32500 000.2110 093.0578 0002382 032.5779 323.6414 01.00271387030977","LAUNCH_DATE":"2008-02-23","LAUNCH_SITE":"TANEGASHIMA SPACE CENTER","OWNER":"JAPAN","ORBIT_TYPE":"Geosynchronous","OPERATIONAL_STATUS":"Operational","satInfo":{"lng":41.92048383394097,"lat":2.497335642006671,"elevation":-6.134176675562877,"azimuth":273.079516166059,"range":42330.62460653398,"height":35750.0894217436,"velocity":3.076340278648764},"x":171,"y":-193,"dx":2.2890209452959938,"dy":2.0552986697881623,"maxAlt":256,"minAlt":256},{"OBJECT_ID":"2008-018B","OBJECT_NAME":"STAR ONE C2","NORAD_CAT_ID":"32768","OBJECT_TYPE":"PAYLOAD","PERIOD":"1436.123","INCLINATION":"0.0367","APOGEE":"35796.767","PERIGEE":"35777.463","ECCENTRICITY":"0.0002289","MEAN_MOTION":"1.00269935","TLE_LINE1":"1 32768U 08018B   16238.26683172 -.00000291  00000-0  00000+0 0  9990","TLE_LINE2":"2 32768   0.0367 212.6190 0002289  19.6975 127.6573  1.00269935 30620","LAUNCH_DATE":"2008-04-18","LAUNCH_SITE":"FRENCH GUIANA","OWNER":"BRAZIL","ORBIT_TYPE":"Geosynchronous","OPERATIONAL_STATUS":"Operational","satInfo":{"lng":-87.17808922705359,"lat":-0.587404853944868,"elevation":-9.142520616645733,"azimuth":42.17808922705359,"range":42728.686570362304,"height":35809.9461100687,"velocity":3.073508670629578},"x":-259,"y":-14,"dx":0.15131413302073382,"dy":-3.069781683049037,"maxAlt":256,"minAlt":256},{"OBJECT_ID":"2008-018C","OBJECT_NAME":"ARIANE 5 R/B","NORAD_CAT_ID":"32769","OBJECT_TYPE":"ROCKET BODY","PERIOD":"570.054","INCLINATION":"1.5653","APOGEE":"32533.685","PERIGEE":"257.876","ECCENTRICITY":"0.7086135","MEAN_MOTION":"2.52607471","TLE_LINE1":"1 32769U 08018C   16238.76622179 +.00000898 +00000-0 +28433-3 0  9992","TLE_LINE2":"2 32769 001.5653 096.4051 7086135 347.2024 001.6388 02.52607471072881","LAUNCH_DATE":"2008-04-18","LAUNCH_SITE":"FRENCH GUIANA","OWNER":"FRANCE","ORBIT_TYPE":"Highly Elliptical Orbit","OPERATIONAL_STATUS":"N/A, derelict rocket body","satInfo":{"lng":-32.69403883206634,"lat":-0.8075127555820025,"elevation":-12.047140052150711,"azimuth":347.6940388320663,"range":32608.892699952474,"height":25515.74762438386,"velocity":2.7174268889343796},"x":-101,"y":-156,"dx":2.2868967540910035,"dy":-1.467825647967637,"maxAlt":233,"minAlt":0},{"OBJECT_ID":"2008-022A","OBJECT_NAME":"AMOS 3","NORAD_CAT_ID":"32794","OBJECT_TYPE":"PAYLOAD","PERIOD":"1436.077","INCLINATION":"0.0446","APOGEE":"35791.158","PERIGEE":"35781.292","ECCENTRICITY":"0.000117","MEAN_MOTION":"1.00273111","TLE_LINE1":"1 32794U 08022A   16239.13452203 -.00000062  00000-0  00000+0 0  9996","TLE_LINE2":"2 32794   0.0446 250.0947 0001170 275.1736 213.9734  1.00273111 30534","LAUNCH_DATE":"2008-04-28","LAUNCH_SITE":"TYURATAM MISSILE AND SPACE COMPLEX","OWNER":"ISRAEL","ORBIT_TYPE":"Geosynchronous","OPERATIONAL_STATUS":"Operational","satInfo":{"lng":31.58955971292584,"lat":-1.9239820022575476,"elevation":-10.445014783324627,"azimuth":283.41044028707415,"range":42869.67883448077,"height":35804.919631376375,"velocity":3.0741856315961376},"x":134,"y":-221,"dx":2.618660180734133,"dy":1.6103528046206583,"maxAlt":256,"minAlt":256},{"OBJECT_ID":"2008-024B","OBJECT_NAME":"BLOCK DM-SL R/B","NORAD_CAT_ID":"32952","OBJECT_TYPE":"ROCKET BODY","PERIOD":"670.960","INCLINATION":"0.3659","APOGEE":"35582.766","PERIGEE":"2436.516","ECCENTRICITY":"0.6527994","MEAN_MOTION":"2.14617811","TLE_LINE1":"1 32952U 08024B   16239.28443237 -.00000249  00000-0  00000+0 0  9994","TLE_LINE2":"2 32952   0.3659 120.0969 6527994 221.2396   1.4804  2.14617811 64817","LAUNCH_DATE":"2008-05-21","LAUNCH_SITE":"SEA LAUNCH","OWNER":"SEA LAUNCH DEMO","ORBIT_TYPE":"Highly Elliptical Orbit","OPERATIONAL_STATUS":"N/A, derelict rocket body","satInfo":{"lng":-114.32206747717336,"lat":0.05394497407872397,"elevation":-15.93377595950697,"azimuth":69.32206747717335,"range":23080.741885404736,"height":15815.844360967896,"velocity":4.496465403997278},"x":-105,"y":45,"dx":-1.8519383206209525,"dy":-4.09738033210978,"maxAlt":255,"minAlt":16},{"OBJECT_ID":"2008-034D","OBJECT_NAME":"ARIANE 5 R/B","NORAD_CAT_ID":"33156","OBJECT_TYPE":"ROCKET BODY","PERIOD":"605.312","INCLINATION":"1.8612","APOGEE":"34352.692","PERIGEE":"298.124","ECCENTRICITY":"0.7183434","MEAN_MOTION":"2.37893649","TLE_LINE1":"1 33156U 08034D   16238.44348837 +.00000213 +00000-0 +14209-3 0  9999","TLE_LINE2":"2 33156 001.8612 276.0135 7183434 149.1443 287.2222 02.37893649069054","LAUNCH_DATE":"2008-07-07","LAUNCH_SITE":"FRENCH GUIANA","OWNER":"FRANCE","ORBIT_TYPE":"Highly Elliptical Orbit","OPERATIONAL_STATUS":"N/A, derelict rocket body","satInfo":{"lng":-107.66431968396635,"lat":-1.326147042667406,"elevation":-10.377629136395822,"azimuth":62.66431968396635,"range":40391.27936110905,"height":33363.0500860303,"velocity":1.7942246293157167},"x":-230,"y":71,"dx":-0.5444390596140004,"dy":-1.7096280679755302,"maxAlt":246,"minAlt":1},{"OBJECT_ID":"2008-035B","OBJECT_NAME":"BLOCK DM-SL R/B","NORAD_CAT_ID":"33208","OBJECT_TYPE":"ROCKET BODY","PERIOD":"636.514","INCLINATION":"0.2847","APOGEE":"35607.350","PERIGEE":"658.906","ECCENTRICITY":"0.7129058","MEAN_MOTION":"2.26232092","TLE_LINE1":"1 33208U 08035B   16238.37534289  .00000007  00000-0  23751-3 0  9991","TLE_LINE2":"2 33208   0.2847  74.8145 7129058 337.2592 300.9474  2.26232092 67043","LAUNCH_DATE":"2008-07-16","LAUNCH_SITE":"SEA LAUNCH","OWNER":"SEA LAUNCH DEMO","ORBIT_TYPE":"Highly Elliptical Orbit","OPERATIONAL_STATUS":"N/A, derelict rocket body","satInfo":{"lng":-173.88795888549456,"lat":-2.5609056911155164,"elevation":-12.610291518478519,"azimuth":128.88795888549453,"range":36383.82792608371,"height":29163.47753704956,"velocity":2.483240799377105},"x":-24,"y":207,"dx":-2.469125040611771,"dy":-0.2643981874275299,"maxAlt":255,"minAlt":3},{"OBJECT_ID":"2008-038A","OBJECT_NAME":"SUPERBIRD 7","NORAD_CAT_ID":"33274","OBJECT_TYPE":"PAYLOAD","PERIOD":"1436.107","INCLINATION":"0.0434","APOGEE":"35789.018","PERIGEE":"35784.599","ECCENTRICITY":"5.24e-05","MEAN_MOTION":"1.0027103","TLE_LINE1":"1 33274U 08038A   16238.92132579 -.00000279 +00000-0 +00000-0 0  9995","TLE_LINE2":"2 33274 000.0434 294.1856 0000524 252.9670 263.0747 01.00271030069805","LAUNCH_DATE":"2008-08-14","LAUNCH_SITE":"FRENCH GUIANA","OWNER":"JAPAN","ORBIT_TYPE":"Geosynchronous","OPERATIONAL_STATUS":"Operational","satInfo":{"lng":-13.573277362413496,"lat":-0.8560883768134417,"elevation":-9.40896726768849,"azimuth":328.5732773624135,"range":42735.90758805133,"height":35787.52869572598,"velocity":3.074662161415799},"x":-62,"y":-252,"dx":2.9887885834305417,"dy":-0.7215886711952509,"maxAlt":256,"minAlt":256},{"OBJECT_ID":"2008-044A","OBJECT_NAME":"NIMIQ 4","NORAD_CAT_ID":"33373","OBJECT_TYPE":"PAYLOAD","PERIOD":"1436.079","INCLINATION":"0.0146","APOGEE":"35795.427","PERIGEE":"35777.094","ECCENTRICITY":"0.0002174","MEAN_MOTION":"1.00272985","TLE_LINE1":"1 33373U 08044A   16238.37427516 -.00000247  00000-0  00000+0 0  9993","TLE_LINE2":"2 33373   0.0146 108.4858 0002174  36.4072 241.8962  1.00272985 28918","LAUNCH_DATE":"2008-09-19","LAUNCH_SITE":"TYURATAM MISSILE AND SPACE COMPLEX","OWNER":"CANADA","ORBIT_TYPE":"Geosynchronous","OPERATIONAL_STATUS":"Operational","satInfo":{"lng":-98.3667666344317,"lat":-1.8638228364983507,"elevation":-10.386901145547128,"azimuth":53.36676663443168,"range":42861.25639149151,"height":35803.03309442971,"velocity":3.073887518062556},"x":-257,"y":36,"dx":-0.4472788975252588,"dy":-3.0411718237431717,"maxAlt":256,"minAlt":256}]